{
    "links": {
        "self": "http://www.neowsapp.com/rest/v1/neo/3694780?api_key=iIulBulltgU6a56xZRHN4H3l9WmuAYTsLGpBGhQ2"
    },
    "id": "3694780",
    "neo_reference_id": "3694780",
    "name": "(2014 UH115)",
    "designation": "2014 UH115",
    "nasa_jpl_url": "http://ssd.jpl.nasa.gov/sbdb.cgi?sstr=3694780",
    "absolute_magnitude_h": 24.2,
    "estimated_diameter": {
        "kilometers": {
            "estimated_diameter_min": 0.0384197891,
            "estimated_diameter_max": 0.0859092601
        },
        "meters": {
            "estimated_diameter_min": 38.4197891064,
            "estimated_diameter_max": 85.9092601232
        },
        "miles": {
            "estimated_diameter_min": 0.0238729428,
            "estimated_diameter_max": 0.0533815229
        },
        "feet": {
            "estimated_diameter_min": 126.0491808919,
            "estimated_diameter_max": 281.8545369825
        }
    },
    "is_potentially_hazardous_asteroid": false,
    "close_approach_data": [
        {
            "close_approach_date": "2014-10-31",
            "close_approach_date_full": "2014-Oct-31 17:00",
            "epoch_date_close_approach": 1414774800000,
            "relative_velocity": {
                "kilometers_per_second": "7.7504482499",
                "kilometers_per_hour": "27901.6136995629",
                "miles_per_hour": "17336.9776901534"
            },
            "miss_distance": {
                "astronomical": "0.1741937627",
                "lunar": "67.7613736903",
                "kilometers": "26059015.867205449",
                "miles": "16192321.6119512362"
            },
            "orbiting_body": "Earth"
        }
    ],
    "orbital_data": {
        "orbit_id": "5",
        "orbit_determination_date": "2017-04-06 08:37:47",
        "first_observation_date": "2014-10-26",
        "last_observation_date": "2014-11-14",
        "data_arc_in_days": 19,
        "observations_used": 18,
        "orbit_uncertainty": "9",
        "minimum_orbit_intersection": ".172428",
        "jupiter_tisserand_invariant": "4.510",
        "epoch_osculation": "2456958.5",
        "eccentricity": ".2197775993015967",
        "semi_major_axis": "1.48585678115019",
        "inclination": "14.73582847747167",
        "ascending_node_longitude": "215.4374086652873",
        "orbital_period": "661.5517960285847",
        "perihelion_distance": "1.159298744883003",
        "perihelion_argument": "195.871567437391",
        "aphelion_distance": "1.812414817417376",
        "perihelion_time": "2456978.613487135560",
        "mean_anomaly": "349.0547415753842",
        "mean_motion": ".544175077690281",
        "equinox": "J2000",
        "orbit_class": {
            "orbit_class_type": "AMO",
            "orbit_class_description": "Near-Earth asteroid orbits similar to that of 1221 Amor",
            "orbit_class_range": "1.017 AU < q (perihelion) < 1.3 AU"
        }
    },
    "is_sentry_object": false
}